CCSDS_OMM_VERS = 2.0
CREATION_DATE  = 
ORIGINATOR     = 

OBJECT_NAME    = STARLINK-35979
OBJECT_ID      = 2025-278U
CENTER_NAME    = EARTH
REF_FRAME      = TEME
TIME_SYSTEM    = UTC
MEAN_ELEMENT_THEORY = SGP/SGP4

EPOCH          = 2025-12-27T17:27:39.422304
MEAN_MOTION    = 15.50676069
ECCENTRICITY   = .00024707
INCLINATION    = 43.0017
RA_OF_ASC_NODE = 162.4804
ARG_OF_PERICENTER = 254.6457
MEAN_ANOMALY   = 105.4130

EPHEMERIS_TYPE = 0
CLASSIFICATION_TYPE = U
NORAD_CAT_ID   = 66809
ELEMENT_SET_NO = 999
REV_AT_EPOCH   = 418
BSTAR          = .20256397E-2
MEAN_MOTION_DOT = .120765E-2
MEAN_MOTION_DDOT = 0

CCSDS_OMM_VERS = 2.0
CREATION_DATE  = 
ORIGINATOR     = 

OBJECT_NAME    = STARLINK-36046
OBJECT_ID      = 2025-278V
CENTER_NAME    = EARTH
REF_FRAME      = TEME
TIME_SYSTEM    = UTC
MEAN_ELEMENT_THEORY = SGP/SGP4

EPOCH          = 2025-12-27T17:28:38.716896
MEAN_MOTION    = 15.50656871
ECCENTRICITY   = .00030756
INCLINATION    = 43.0020
RA_OF_ASC_NODE = 162.4871
ARG_OF_PERICENTER = 263.3299
MEAN_ANOMALY   = 96.7212

EPHEMERIS_TYPE = 0
CLASSIFICATION_TYPE = U
NORAD_CAT_ID   = 66810
ELEMENT_SET_NO = 999
REV_AT_EPOCH   = 418
BSTAR          = .189685E-2
MEAN_MOTION_DOT = .112879E-2
MEAN_MOTION_DDOT = 0

CCSDS_OMM_VERS = 2.0
CREATION_DATE  = 
ORIGINATOR     = 

OBJECT_NAME    = STARLINK-36045
OBJECT_ID      = 2025-278W
CENTER_NAME    = EARTH
REF_FRAME      = TEME
TIME_SYSTEM    = UTC
MEAN_ELEMENT_THEORY = SGP/SGP4

EPOCH          = 2025-12-27T17:28:09.136992
MEAN_MOTION    = 15.50679350
ECCENTRICITY   = .00031895
INCLINATION    = 43.0015
RA_OF_ASC_NODE = 162.4844
ARG_OF_PERICENTER = 265.6374
MEAN_ANOMALY   = 94.4122

EPHEMERIS_TYPE = 0
CLASSIFICATION_TYPE = U
NORAD_CAT_ID   = 66811
ELEMENT_SET_NO = 999
REV_AT_EPOCH   = 418
BSTAR          = .23916493E-2
MEAN_MOTION_DOT = .143082E-2
MEAN_MOTION_DDOT = 0

CCSDS_OMM_VERS = 2.0
CREATION_DATE  = 
ORIGINATOR     = 

OBJECT_NAME    = STARLINK-36054
OBJECT_ID      = 2025-278X
CENTER_NAME    = EARTH
REF_FRAME      = TEME
TIME_SYSTEM    = UTC
MEAN_ELEMENT_THEORY = SGP/SGP4

EPOCH          = 2025-12-27T17:27:09.804384
MEAN_MOTION    = 15.50692446
ECCENTRICITY   = .00018011
INCLINATION    = 42.9997
RA_OF_ASC_NODE = 162.4779
ARG_OF_PERICENTER = 254.7116
MEAN_ANOMALY   = 105.3545

EPHEMERIS_TYPE = 0
CLASSIFICATION_TYPE = U
NORAD_CAT_ID   = 66812
ELEMENT_SET_NO = 999
REV_AT_EPOCH   = 418
BSTAR          = .22699185E-2
MEAN_MOTION_DOT = .135705E-2
MEAN_MOTION_DDOT = 0

CCSDS_OMM_VERS = 2.0
CREATION_DATE  = 
ORIGINATOR     = 

OBJECT_NAME    = STARLINK-36042
OBJECT_ID      = 2025-278Y
CENTER_NAME    = EARTH
REF_FRAME      = TEME
TIME_SYSTEM    = UTC
MEAN_ELEMENT_THEORY = SGP/SGP4

EPOCH          = 2025-12-27T17:26:40.240896
MEAN_MOTION    = 15.50674661
ECCENTRICITY   = .00023771
INCLINATION    = 43.0019
RA_OF_ASC_NODE = 162.4746
ARG_OF_PERICENTER = 248.8594
MEAN_ANOMALY   = 111.2013

EPHEMERIS_TYPE = 0
CLASSIFICATION_TYPE = U
NORAD_CAT_ID   = 66813
ELEMENT_SET_NO = 999
REV_AT_EPOCH   = 418
BSTAR          = .20383181E-2
MEAN_MOTION_DOT = .121528E-2
MEAN_MOTION_DDOT = 0

CCSDS_OMM_VERS = 2.0
CREATION_DATE  = 
ORIGINATOR     = 

OBJECT_NAME    = STARLINK-35984
OBJECT_ID      = 2025-278Z
CENTER_NAME    = EARTH
REF_FRAME      = TEME
TIME_SYSTEM    = UTC
MEAN_ELEMENT_THEORY = SGP/SGP4

EPOCH          = 2025-12-29T08:00:01.999872
MEAN_MOTION    = 15.40626073
ECCENTRICITY   = .00017647
INCLINATION    = 43.0001
RA_OF_ASC_NODE = 153.2291
ARG_OF_PERICENTER = 271.4832
MEAN_ANOMALY   = 5.5949

EPHEMERIS_TYPE = 0
CLASSIFICATION_TYPE = U
NORAD_CAT_ID   = 66814
ELEMENT_SET_NO = 999
REV_AT_EPOCH   = 571
BSTAR          = .30366678E-2
MEAN_MOTION_DOT = .128387E-2
MEAN_MOTION_DDOT = 0

CCSDS_OMM_VERS = 2.0
CREATION_DATE  = 
ORIGINATOR     = 

OBJECT_NAME    = STARLINK-35985
OBJECT_ID      = 2025-278AA
CENTER_NAME    = EARTH
REF_FRAME      = TEME
TIME_SYSTEM    = UTC
MEAN_ELEMENT_THEORY = SGP/SGP4

EPOCH          = 2025-12-27T18:56:57.222816
MEAN_MOTION    = 15.50644265
ECCENTRICITY   = .00022628
INCLINATION    = 43.0016
RA_OF_ASC_NODE = 162.0840
ARG_OF_PERICENTER = 262.4248
MEAN_ANOMALY   = 97.6355

EPHEMERIS_TYPE = 0
CLASSIFICATION_TYPE = U
NORAD_CAT_ID   = 66815
ELEMENT_SET_NO = 999
REV_AT_EPOCH   = 540
BSTAR          = .13744284E-2
MEAN_MOTION_DOT = .81324E-3
MEAN_MOTION_DDOT = 0

CCSDS_OMM_VERS = 2.0
CREATION_DATE  = 
ORIGINATOR     = 

OBJECT_NAME    = STARLINK-36098
OBJECT_ID      = 2025-278AB
CENTER_NAME    = EARTH
REF_FRAME      = TEME
TIME_SYSTEM    = UTC
MEAN_ELEMENT_THEORY = SGP/SGP4

EPOCH          = 2025-12-27T18:58:55.691904
MEAN_MOTION    = 15.50673307
ECCENTRICITY   = .00032886
INCLINATION    = 43.0009
RA_OF_ASC_NODE = 162.0953
ARG_OF_PERICENTER = 254.5726
MEAN_ANOMALY   = 105.4771

EPHEMERIS_TYPE = 0
CLASSIFICATION_TYPE = U
NORAD_CAT_ID   = 66816
ELEMENT_SET_NO = 999
REV_AT_EPOCH   = 419
BSTAR          = .20427012E-2
MEAN_MOTION_DOT = .121798E-2
MEAN_MOTION_DDOT = 0

CCSDS_OMM_VERS = 2.0
CREATION_DATE  = 
ORIGINATOR     = 

OBJECT_NAME    = STARLINK-35995
OBJECT_ID      = 2025-278AC
CENTER_NAME    = EARTH
REF_FRAME      = TEME
TIME_SYSTEM    = UTC
MEAN_ELEMENT_THEORY = SGP/SGP4

EPOCH          = 2025-12-28T21:14:49.916544
MEAN_MOTION    = 15.50687189
ECCENTRICITY   = .00013027
INCLINATION    = 42.9970
RA_OF_ASC_NODE = 155.6880
ARG_OF_PERICENTER = 303.9393
MEAN_ANOMALY   = 56.1344

EPHEMERIS_TYPE = 0
CLASSIFICATION_TYPE = U
NORAD_CAT_ID   = 66817
ELEMENT_SET_NO = 999
REV_AT_EPOCH   = 436
BSTAR          = .1827928E-2
MEAN_MOTION_DOT = .108816E-2
MEAN_MOTION_DDOT = 0

CCSDS_OMM_VERS = 2.0
CREATION_DATE  = 
ORIGINATOR     = 

OBJECT_NAME    = STARLINK-35994
OBJECT_ID      = 2025-278AD
CENTER_NAME    = EARTH
REF_FRAME      = TEME
TIME_SYSTEM    = UTC
MEAN_ELEMENT_THEORY = SGP/SGP4

EPOCH          = 2025-12-29T08:00:01.999872
MEAN_MOTION    = 15.40612561
ECCENTRICITY   = .00020141
INCLINATION    = 42.9994
RA_OF_ASC_NODE = 153.3514
ARG_OF_PERICENTER = 280.6714
MEAN_ANOMALY   = 306.6666

EPHEMERIS_TYPE = 0
CLASSIFICATION_TYPE = U
NORAD_CAT_ID   = 66818
ELEMENT_SET_NO = 999
REV_AT_EPOCH   = 562
BSTAR          = .30676633E-2
MEAN_MOTION_DOT = .129665E-2
MEAN_MOTION_DDOT = 0

CCSDS_OMM_VERS = 2.0
CREATION_DATE  = 
ORIGINATOR     = 

OBJECT_NAME    = STARLINK-35989
OBJECT_ID      = 2025-278AE
CENTER_NAME    = EARTH
REF_FRAME      = TEME
TIME_SYSTEM    = UTC
MEAN_ELEMENT_THEORY = SGP/SGP4

EPOCH          = 2025-12-27T17:24:41.659488
MEAN_MOTION    = 15.50659759
ECCENTRICITY   = .0003746
INCLINATION    = 43.0004
RA_OF_ASC_NODE = 162.4642
ARG_OF_PERICENTER = 267.2392
MEAN_ANOMALY   = 92.8039

EPHEMERIS_TYPE = 0
CLASSIFICATION_TYPE = U
NORAD_CAT_ID   = 66819
ELEMENT_SET_NO = 999
REV_AT_EPOCH   = 418
BSTAR          = .20575939E-2
MEAN_MOTION_DOT = .122648E-2
MEAN_MOTION_DDOT = 0

CCSDS_OMM_VERS = 2.0
CREATION_DATE  = 
ORIGINATOR     = 

OBJECT_NAME    = KOMPSAT-7
OBJECT_ID      = 2025-279A
CENTER_NAME    = EARTH
REF_FRAME      = TEME
TIME_SYSTEM    = UTC
MEAN_ELEMENT_THEORY = SGP/SGP4

EPOCH          = 2025-12-29T06:44:31.728192
MEAN_MOTION    = 15.00875742
ECCENTRICITY   = .00100776
INCLINATION    = 97.6458
RA_OF_ASC_NODE = 308.8653
ARG_OF_PERICENTER = 201.3504
MEAN_ANOMALY   = 158.7301

EPHEMERIS_TYPE = 0
CLASSIFICATION_TYPE = U
NORAD_CAT_ID   = 66820
ELEMENT_SET_NO = 999
REV_AT_EPOCH   = 413
BSTAR          = .36229017E-3
MEAN_MOTION_DOT = .4555E-4
MEAN_MOTION_DDOT = 0

